     2.13           N: GPS     NAV MSG                      RINEX VERSION / TYPE
Mrg_BRDC ver 2013.00                    20150818 165428 LCL PGM / RUN BY / DATE 
                                                            COMMENT             
This file created from the merger of the following files:   COMMENT             
areq2000.15n                                                COMMENT             
bjfs2000.15n                                                COMMENT             
bor12000.15n                                                COMMENT             
chan2000.15n                                                COMMENT             
chpi2000.15n                                                COMMENT             
crao2000.15n                                                COMMENT             
fair2000.15n                                                COMMENT             
glps2000.15n                                                COMMENT             
glsv2000.15n                                                COMMENT             
gmsd2000.15n                                                COMMENT             
gode2000.15n                                                COMMENT             
gold2000.15n                                                COMMENT             
gras2000.15n                                                COMMENT             
guam2000.15n                                                COMMENT             
hers2000.15n                                                COMMENT             
hrao2000.15n                                                COMMENT             
ispa2000.15n                                                COMMENT             
kerg2000.15n                                                COMMENT             
kokb2000.15n                                                COMMENT             
mate2000.15n                                                COMMENT             
nklg2000.15n                                                COMMENT             
nyal2000.15n                                                COMMENT             
pdel2000.15n                                                COMMENT             
reyk2000.15n                                                COMMENT             
riga2000.15n                                                COMMENT             
sey12000.15n                                                COMMENT             
sfer2000.15n                                                COMMENT             
stjo2000.15n                                                COMMENT             
str22000.15n                                                COMMENT             
syog2000.15n                                                COMMENT             
thti2000.15n                                                COMMENT             
tlse2000.15n                                                COMMENT             
wes22000.15n                                                COMMENT             
wtzr2000.15n                                                COMMENT             
yar22000.15n                                                COMMENT             
yell2000.15n                                                COMMENT             
zimm2000.15n                                                COMMENT             
                                                            END OF HEADER       
20 15 07 19 12 00  0.0 3.396919928491D-04 3.183231456205D-12 0.000000000000D+00
    2.200000000000D+01 4.159375000000D+01 5.227360597694D-09-1.418580890000D+00
    2.402812242508D-06 4.784316290170D-03 8.894130587578D-06 5.153612546921D+03
    4.320000000000D+04 1.005828380585D-07-1.961459708247D+00 1.005828380585D-07
    9.259698299716D-01 1.840000000000D+02 1.180278809979D+00-8.362848346201D-09
    5.575232230801D-10 1.000000000000D+00 1.854000000000D+03 0.000000000000D+00
    2.000000000000D+00 0.000000000000D+00-8.381903171539D-09 2.200000000000D+01
    3.603000000000D+04 4.000000000000D+00
21 15 07 19 12 00  0.0-4.649939946830D-04-3.183231456205D-12 0.000000000000D+00
    7.300000000000D+01-9.812500000000D+01 4.756983861758D-09 1.793247819627D+00
   -5.420297384262D-06 2.248924155720D-02 9.987503290176D-06 5.153797935486D+03
    4.320000000000D+04-1.136213541031D-07-2.952135910207D+00-5.662441253662D-07
    9.346641247410D-01 1.760312500000D+02-1.892476922426D+00-8.149625178886D-09
   -1.264338379054D-10 0.000000000000D+00 1.854000000000D+03 0.000000000000D+00
    2.000000000000D+00 0.000000000000D+00-1.164153218269D-08 7.300000000000D+01
    3.600000000000D+04 4.000000000000D+00
22 15 07 19 12 00  0.0 3.726053982973D-04 3.865352482535D-12 0.000000000000D+00
    1.150000000000D+02 3.512500000000D+01 5.412011146273D-09 2.763721355516D-01
    1.849606633186D-06 8.035836624913D-03 8.549541234970D-06 5.153685190201D+03
    4.320000000000D+04-1.303851604462D-07-1.908110020510D+00 9.499490261078D-08
    9.225546652706D-01 1.962187500000D+02-2.038070532218D+00-8.517140487374D-09
    4.900204113170D-10 0.000000000000D+00 1.854000000000D+03 0.000000000000D+00
    4.000000000000D+00 0.000000000000D+00-1.769512891769D-08 1.150000000000D+02
    3.600000000000D+04 4.000000000000D+00
23 15 07 19 12 00  0.0-0.121930148453D-03-0.227373675443D-11 0.000000000000D+00
    0.890000000000D+02-0.151250000000D+02 0.518664461600D-08-0.195187594466D+01
   -0.114180147648D-05 0.104231423466D-01 0.478327274323D-05 0.515358447266D+04
    0.432000000000D+05 0.158324837685D-06-0.836071157240D+00-0.949949026108D-07
    0.947865577949D+00 0.278500000000D+03-0.265173517989D+01-0.837070581635D-08
    0.332156692802D-10 0.100000000000D+01 0.185400000000D+04 0.000000000000D+00
    0.240000000000D+01 0.000000000000D+00-0.200234353542D-07 0.890000000000D+02
    0.360180000000D+05 0.400000000000D+01 0.000000000000D+00 0.000000000000D+00
24 15 07 19 12 00  0.0-1.584645360708D-06-6.821210263297D-13 0.000000000000D+00
    7.100000000000D+01 9.250000000000D+00 4.603763193788D-09-2.689425480909D+00
    3.837049007416D-07 3.262847196311D-03 1.078285276890D-05 5.153669605255D+03
    4.320000000000D+04-4.470348358154D-08 1.903280017995D-01-1.080334186554D-07
    9.532747043807D-01 1.681250000000D+02 3.480055182724D-01-7.952831267344D-09
   -3.378712165495D-10 1.000000000000D+00 1.854000000000D+03 0.000000000000D+00
    2.800000000000D+00 0.000000000000D+00 2.328306436539D-09 7.100000000000D+01
    3.601800000000D+04 4.000000000000D+00
25 15 07 19 12 00  0.0-0.148485414684D-04-0.454747350886D-11 0.000000000000D+00
    0.390000000000D+02 0.891875000000D+02 0.423196199249D-08 0.153761100301D+01
    0.461935997009D-05 0.465105567127D-02 0.722147524357D-05 0.515365607262D+04
    0.432000000000D+05-0.800937414169D-07 0.125447878007D+01 0.100582838058D-06
    0.978197251808D+00 0.249406250000D+03 0.755833263421D+00-0.803747765035D-08
    0.247867467532D-09 0.100000000000D+01 0.185400000000D+04 0.000000000000D+00
    0.240000000000D+01 0.000000000000D+00 0.512227416039D-08 0.390000000000D+02
    0.378180000000D+05 0.400000000000D+01 0.000000000000D+00 0.000000000000D+00
27 15 07 19 12 00  0.0 5.437061190605D-06 2.842170943040D-12 0.000000000000D+00
    2.500000000000D+01-3.843750000000D+01 4.567690262634D-09-7.954031084179D-01
   -2.080574631691D-06 2.595294499770D-03 2.834945917130D-06 5.153693223953D+03
    4.320000000000D+04 1.005828380585D-07 2.298646090053D+00 3.725290298462D-09
    9.679403849794D-01 3.307187500000D+02 2.937674267182D-01-8.306774581933D-09
   -2.500104139373D-10 0.000000000000D+00 1.854000000000D+03 0.000000000000D+00
    2.000000000000D+00 0.000000000000D+00 1.396983861923D-09 2.500000000000D+01
    3.600000000000D+04 4.000000000000D+00
28 15 07 19 12 00  0.0 0.454643741250D-03 0.261479726760D-11 0.000000000000D+00
    0.510000000000D+02 0.784687500000D+02 0.413517224652D-08 0.493872892703D-01
    0.425614416599D-05 0.195593793178D-01 0.609643757343D-05 0.515369733620D+04
    0.432000000000D+05-0.266358256340D-06 0.132573399407D+01 0.558793544769D-07
    0.988864176036D+00 0.280937500000D+03-0.166037981529D+01-0.830570310873D-08
    0.178936024832D-09 0.100000000000D+01 0.185400000000D+04 0.000000000000D+00
    0.240000000000D+01 0.000000000000D+00-0.111758708954D-07 0.510000000000D+02
    0.360180000000D+05 0.400000000000D+01 0.000000000000D+00 0.000000000000D+00
30 15 07 19 12 00  0.0 -.107819214463D-04  .761701812735D-11  .000000000000D+00
     .500000000000D+02  .199687500000D+02  .456840457810D-08  .278845289266D+01
     .114180147648D-05  .162424275186D-02  .105742365122D-04  .515372469902D+04
     .432000000000D+05 -.596046447754D-07  .280636999646D+00  .353902578354D-07
     .955842345047D+00  .175593750000D+03  .298690794274D+01 -.793461622290D-08
    -.192150860997D-09  .100000000000D+01  .185400000000D+04  .000000000000D+00
     .240000000000D+01  .000000000000D+00  .325962901115D-08  .500000000000D+02
     .424620000000D+05  .400000000000D+01
31 15 07 19 12 00  0.0 3.093057312071D-04-1.250555214938D-12 0.000000000000D+00
    6.300000000000D+01 2.000000000000D+00 4.144815505346D-09 2.637503596829D+00
    3.241002559662D-07 8.023962727748D-03 1.095049083233D-05 5.153556838989D+03
    4.320000000000D+04-9.313225746155D-09 2.400520738296D-01 1.713633537292D-07
    9.749761563561D-01 1.754062500000D+02-5.239280296940D-01-7.683891493495D-09
   -3.267993267894D-10 0.000000000000D+00 1.854000000000D+03 0.000000000000D+00
    2.000000000000D+00 0.000000000000D+00-1.350417733192D-08 6.300000000000D+01
    3.600000000000D+04 4.000000000000D+00
